[{"OBJECT_NAME":"ZHUHAI-1 03B","OBJECT_ID":"2019-060C","EPOCH":"2026-03-09T23:17:29.992992","MEAN_MOTION":15.48049208,"ECCENTRICITY":0.00085373,"INCLINATION":97.5406,"RA_OF_ASC_NODE":221.8965,"ARG_OF_PERICENTER":320.2572,"MEAN_ANOMALY":39.8051,"EPHEMERIS_TYPE":0,"CLASSIFICATION_TYPE":"U","NORAD_CAT_ID":44536,"ELEMENT_SET_NO":999,"REV_AT_EPOCH":36094,"BSTAR":0.00073406369,"MEAN_MOTION_DOT":0.00038517,"MEAN_MOTION_DDOT":0},{"OBJECT_NAME":"STARLINK-1361","OBJECT_ID":"2020-025AN","EPOCH":"2026-03-09T22:44:55.848768","MEAN_MOTION":15.47742463,"ECCENTRICITY":0.00077177,"INCLINATION":53.0509,"RA_OF_ASC_NODE":72.6747,"ARG_OF_PERICENTER":32.9629,"MEAN_ANOMALY":327.1858,"EPHEMERIS_TYPE":0,"CLASSIFICATION_TYPE":"U","NORAD_CAT_ID":45567,"ELEMENT_SET_NO":999,"REV_AT_EPOCH":32559,"BSTAR":0.0019136745,"MEAN_MOTION_DOT":0.00101742,"MEAN_MOTION_DDOT":0}]
